"{\n    \"CCSDS_OMM_VERS\": \"2.0\",\n    \"COMMENT\": \"GENERATED VIA SPACE-TRACK.ORG API\",\n    \"CREATION_DATE\": \"2025-08-29T09:54:54\",\n    \"ORIGINATOR\": \"18 SPCS\",\n    \"OBJECT_NAME\": \"GALILEO 26 (2C2)\",\n    \"OBJECT_ID\": \"2018-060B\",\n    \"CENTER_NAME\": \"EARTH\",\n    \"REF_FRAME\": \"TEME\",\n    \"TIME_SYSTEM\": \"UTC\",\n    \"MEAN_ELEMENT_THEORY\": \"SGP4\",\n    \"EPOCH\": \"2025-08-28T13:52:42.383712\",\n    \"MEAN_MOTION\": \"1.7047615964\",\n    \"ECCENTRICITY\": \"0.00041223641\",\n    \"INCLINATION\": \"57.257678\",\n    \"RA_OF_ASC_NODE\": \"349.68864\",\n    \"ARG_OF_PERICENTER\": \"231.99134\",\n    \"MEAN_ANOMALY\": \"127.99266\",\n    \"EPHEMERIS_TYPE\": \"0\",\n    \"CLASSIFICATION_TYPE\": \"U\",\n    \"NORAD_CAT_ID\": \"43565\",\n    \"ELEMENT_SET_NO\": \"999\",\n    \"REV_AT_EPOCH\": \"4422\",\n    \"BSTAR\": \"0\",\n    \"MEAN_MOTION_DOT\": \"-0.000001023598\",\n    \"MEAN_MOTION_DDOT\": \"0\",\n    \"TLE_LINE0\": \"0 GALILEO 26 (2C2)\",\n    \"TLE_LINE1\": \"1 43565U 18060B   25240.57826833 -.00000102  00000-0  00000-0 0  9997\",\n    \"TLE_LINE2\": \"2 43565  57.2577 349.6886 0004122 231.9913 127.9927  1.70476160 44220\",\n    \"SEMIMAJOR_AXIS\": \"29600.070\",\n    \"PERIOD\": \"844.693\",\n    \"APOAPSIS\": \"23234.137\",\n    \"PERIAPSIS\": \"23209.733\",\n    \"OBJECT_TYPE\": \"PAYLOAD\",\n    \"DECAYED\": \"0\"\n}"